PANDORE                 
1 63244U 25052AL  25252.98763944  .00003491  00000+0  34490-3 0  9998
2 63244  97.7166 144.7151 0006669  59.4639 300.7238 14.92561476 26773
BUCCANEER MM            
1 63245U 25052AM  25253.27366976  .00002196  00000+0  22037-3 0  9991
2 63245  97.7137 144.9025 0005944  73.0587 287.1284 14.92311845 26810
LEMUR-2-LEIA-PHILIP     
1 63246U 25052AN  25252.64989819  .00005540  00000+0  53117-3 0  9998
2 63246  97.7103 144.4205 0006236  87.2224 272.9710 14.93511249 26737
EZIE-A                  
1 63247U 25052AP  25252.98777615  .00005637  00000+0  54246-3 0  9996
2 63247  97.7155 144.8442 0005392  67.0215 293.1573 14.93355661 26781
LEMUR-2-LIA-MARTIN      
1 63248U 25052AQ  25253.16186637  .00004952  00000+0  47342-3 0  9994
2 63248  97.7155 145.1030 0004941  59.8151 300.3558 14.93679588 26811
EZIE-C                  
1 63249U 25052AR  25252.64787905  .00004776  00000+0  46016-3 0  9993
2 63249  97.7134 144.4787 0005372  76.5438 283.6381 14.93389254 26739
EZIE-B                  
1 63250U 25052AS  25252.70983479  .00004595  00000+0  44250-3 0  9993
2 63250  97.7159 144.6069 0005393  62.8667 297.3102 14.93420796 26749
UVSQ-SAT NG             
1 63251U 25052AT  25252.65202998  .00003853  00000+0  37403-3 0  9996
2 63251  97.7119 144.4485 0004970  84.5326 275.6461 14.93199503 26734
ARVAKER-1               
1 63252U 25052AU  25253.15196774  .00002137  00000+0  21223-3 0  9994
2 63252  97.7135 144.8991 0004225  78.2202 281.9492 14.92753967 26806
ICEYE-X48               
1 63253U 25052AV  25252.97995148  .00002214  00000+0  21763-3 0  9991
2 63253  97.7138 144.8234 0003996  79.2045 280.9625 14.93131151 26780
YAM-8                   
1 63254U 25052AW  25253.17323014  .00005491  00000+0  36069-3 0  9997
2 63254  97.7152 147.9772 0004290  74.5660 285.6041 15.08032427 27000
ICEYE-X50               
1 63255U 25052AX  25253.24438394  .00001461  00000+0  14355-3 0  9991
2 63255  97.7158 145.2807 0003588  75.3698 284.7920 14.93673240 26839
FIRESAT 0 (MUSAT-4)     
1 63256U 25052AY  25252.97500161  .00001529  00000+0  15271-3 0  9996
2 63256  97.7164 144.8724 0001922  80.0432 280.1004 14.92928647 26789
ICEYE-X51               
1 63257U 25052AZ  25253.40415578  .00007482  00000+0  67424-3 0  9994
2 63257  97.7137 145.4841 0002401  86.8859 273.2637 14.95853720 26863
ICEYE-X46               
1 63258U 25052BA  25253.13483831  .00002177  00000+0  21222-3 0  9994
2 63258  97.7153 145.1106 0001860  78.6404 281.5024 14.93484753 26817
LEMUR-2-DELOITTE-1      
1 63259U 25052BB  25253.15673006  .00003930  00000+0  37259-3 0  9997
2 63259  97.7179 145.2986 0001511  34.9454 325.1866 14.94138342 26827
2025-052BC              
1 63260U 25052BC  25252.67213036  .00001366  00000+0  13585-3 0  9995
2 63260  97.7121 144.5761 0002123 135.2650 224.8741 14.93282745 26746
LEMUR-2-EMERSONROSE     
1 63261U 25052BD  25253.16154224  .00005320  00000+0  49334-3 0  9999
2 63261  97.7157 145.4060 0000318  54.7449 305.3802 14.94862205 26832
LEMUR-2-MARACHE-FRAN    
1 63262U 25052BE  25252.98763130  .00006236  00000+0  57159-3 0  9992
2 63262  97.7156 145.3045 0000910 167.0206 193.1038 14.95254046 26812
SOAP                    
1 63263U 25052BF  25253.26030954  .00003814  00000+0  36054-3 0  9996
2 63263  97.7123 145.3403 0002420 146.7682 213.3690 14.94275219 26841
LEMUR-2-THEFALCONER     
1 63264U 25052BG  25252.93303402  .00001790  00000+0  17360-3 0  9991
2 63264  97.7128 145.0151 0001790 164.2654 195.8622 14.93917703 26790
STARLINK-11654 [DTC]    
1 63265U 25053A   25252.75587456  .00314318  00000+0  23435-2 0  9998
2 63265  42.9999 122.8080 0002584 231.6456 128.4179 15.71022681 29212
STARLINK-11659 [DTC]    
1 63266U 25053B   25253.00489982  .00072419  00000+0  56286-3 0  9997
2 63266  42.9995 121.2321 0001655 269.8297  90.2381 15.70843812 29255
STARLINK-11653 [DTC]    
1 63267U 25053C   25252.07329778  .00201808  00000+0  15391-2 0  9997
2 63267  42.9996 127.1585 0001421 261.3520  98.7186 15.70828875 29103
STARLINK-11641 [DTC]    
1 63268U 25053D   25253.00003472 -.00019232  00000+0 -14668-3 0  9999
2 63268  43.0000 121.0393 0001966 264.6655 158.0404 15.70845016  5957
STARLINK-11638 [DTC]    
1 63269U 25053E   25252.99427914  .00180403  00000+0  13759-2 0  9994
2 63269  42.9985 121.1446 0002613 294.1168  65.9426 15.70893650 29251
STARLINK-11614 [DTC]    
1 63270U 25053F   25253.02615125  .00208040  00000+0  15740-2 0  9994
2 63270  43.0017 121.4041 0002404  36.3969 323.7062 15.70998773 29251
STARLINK-11620 [DTC]    
1 63271U 25053G   25253.25003472 -.00045680  00000+0 -35391-3 0  9992
2 63271  43.0000 120.2803 0002077 257.6080 199.9446 15.70874037  5838
STARLINK-11619 [DTC]    
1 63272U 25053H   25251.93459948  .00203636  00000+0  15432-2 0  9997
2 63272  42.9993 127.8346 0002319 248.8035 111.2585 15.70973617 29082
STARLINK-11621 [DTC]    
1 63273U 25053J   25253.04724403  .00114559  00000+0  88287-3 0  9997
2 63273  43.0000 120.6792 0002016 261.4367  98.6272 15.70870345 29268
STARLINK-11615 [DTC]    
1 63274U 25053K   25253.02082464  .00290052  00000+0  21622-2 0  9992
2 63274  42.9984 121.3630 0003772 256.6696 103.3751 15.71097927 29251
STARLINK-11608 [DTC]    
1 63275U 25053L   25252.99958984  .00228519  00000+0  17309-2 0  9993
2 63275  42.9988 121.1914 0002754 305.9767  54.0845 15.70906928 29249
STARLINK-11623 [DTC]    
1 63276U 25053M   25253.03675647  .00172723  00000+0  13183-2 0  9993
2 63276  42.9996 121.4911 0002002 280.2837  79.7805 15.70903230 29241
STARLINK-11612 [DTC]    
1 63277U 25053N   25253.03144573  .00215951  00000+0  16404-2 0  9993
2 63277  42.9998 121.4480 0002170 264.9919  95.0701 15.70878629 29251
STARLINK-33660          
1 63278U 25053P   25253.17836786  .00022706  00000+0  83169-3 0  9990
2 63278  43.0014 181.4668 0002099 252.7419 107.3203 15.27594764 28583
STARLINK-33611          
1 63279U 25053Q   25253.14543186  .00021213  00000+0  77796-3 0  9998
2 63279  42.9956 177.7429 0000441 305.9958  54.0853 15.27588634 28733
STARLINK-33646          
1 63280U 25053R   25253.20773824  .00022868  00000+0  83660-3 0  9995
2 63280  43.0002 180.8225 0001610 264.7189  95.3479 15.27632920 28599
STARLINK-33665          
1 63281U 25053S   25253.18590455  .00026200  00000+0  95753-3 0  9990
2 63281  43.0035 180.6505 0004230 241.6803 118.3623 15.27597774 28597
STARLINK-33603          
1 63282U 25053T   25253.18219276  .00021760  00000+0  79741-3 0  9995
2 63282  43.0026 181.4743 0004004 240.7990 119.2462 15.27596005 28583
STARLINK-33669          
1 63283U 25053U   25253.19361377  .00021908  00000+0  80282-3 0  9993
2 63283  43.0031 180.7137 0004598 243.4233 116.6148 15.27591812 28591
STARLINK-33673          
1 63284U 25053V   25253.15989699  .00035195  00000+0  12817-2 0  9994
2 63284  43.0015 173.5178 0001288 267.4118  92.6587 15.27598800 28785
STARLINK-33662          
1 63285U 25053W   25253.08469759  .00029522  00000+0  10773-2 0  9993
2 63285  42.9990 181.6141 0001339 249.2540 110.8168 15.27601748 28571
STARLINK-33613          
1 63286U 25053X   25253.17195192  .00023807  00000+0  87126-3 0  9998
2 63286  42.9997 181.4154 0004859  52.1269 308.0022 15.27594534 28585
STARLINK-33680          
1 63287U 25053Y   25253.13466079  .00027314  00000+0  99807-3 0  9996
2 63287  43.0035 181.1352 0002516 265.3425  94.7139 15.27590893 28636
COSMOS 2585             
1 63288U 25054A   25232.24465506  .00000049  00000+0  28546-3 0  9999
2 63288  82.4895 265.9353 0023390 333.9003  26.0895 12.42907632 19473
COSMOS 2586             
1 63289U 25054B   25231.81534703  .00000047  00000+0  26890-3 0  9996
2 63289  82.4881 266.1326 0019647 324.2054  35.7708 12.42899220 19418
COSMOS 2587             
1 63290U 25054C   25232.27129316  .00000040  00000+0  21545-3 0  9994
2 63290  82.4935 265.8851 0013327 310.9950  48.9976 12.42906439 19475
2025-055A               
1 63291U 25055A   25253.31731094  .00008677  00000+0  53567-3 0  9999
2 63291  97.6242  27.5631 0017975  30.5034 329.7237 15.10006549 26711
2025-055B               
1 63292U 25055B   25253.33249014  .00010143  00000+0  57455-3 0  9999
2 63292  97.6212  27.9456 0013319  50.5062 309.7344 15.13137610 26702
2025-055C               
1 63293U 25055C   25253.32886575  .00010078  00000+0  57032-3 0  9996
2 63293  97.6224  27.9760 0013038  49.0644 311.1714 15.13176065 26706
2025-055D               
1 63294U 25055D   25253.32602078  .00009129  00000+0  56342-3 0  9999
2 63294  97.6225  27.5206 0017373  25.4415 334.7665 15.10011304 26672
2025-055E               
1 63295U 25055E   25253.33702711  .00008392  00000+0  51856-3 0  9992
2 63295  97.6209  27.4757 0015556  21.7184 338.4702 15.10019263 26673
2025-055F               
1 63296U 25055F   25253.35291598  .00007764  00000+0  48038-3 0  9991
2 63296  97.6237  27.5105 0013429  13.2724 346.8856 15.10021472 26674
2025-055G               
1 63297U 25055G   25253.30997479  .00012463  00000+0  67969-3 0  9994
2 63297  97.6219  28.1411 0011180  50.3870 309.8347 15.14463176 26712
2025-055H               
1 63298U 25055H   25253.30710299  .00019991  00000+0  10198-2 0  9992
2 63298  97.6211  28.4389 0010722  46.2471 313.9647 15.16720761 26733
KINEIS-4E               
1 63300U 25056A   25253.31715861  .00001999  00000+0  32365-3 0  9998
2 63300  97.9922  17.5422 0002077 101.9500 258.1940 14.72349895 25946
KINEIS-4C               
1 63301U 25056B   25253.33402441  .00002043  00000+0  33078-3 0  9991
2 63301  97.9921  17.6757 0002236 132.0412 228.0986 14.72324304 25957
KINEIS-4D               
1 63302U 25056C   25253.32979809  .00002048  00000+0  33139-3 0  9991
2 63302  97.9922  17.6808 0002647 127.1493 232.9957 14.72353390 25955
KINEIS-4A               
1 63303U 25056D   25253.30004872  .00001989  00000+0  32183-3 0  9990
2 63303  97.9922  17.5650 0003749 107.6518 252.5099 14.72391612 25948
